{
  "type": "FeatureCollection",
  "features": [
    {
      "type": "Feature",
      "properties": {
        "norad_id": 26766,
        "name": "INTELSAT 10 (IS-10)",
        "group": "intelsat",
        "lat": 8.603218018985642,
        "lon": 154.04298912358163,
        "alt_km": 36142.24819649601,
        "timestamp": "2025-12-04T17:48:39.840496+00:00",
        "meta_object_name": "INTELSAT 10 (IS-10)",
        "meta_object_id": "2001-019A",
        "meta_epoch": "2025-12-03T11:53:38.525856",
        "meta_mean_motion": 0.99078102,
        "meta_eccentricity": 0.00077711,
        "meta_inclination": 8.6063,
        "meta_ra_of_asc_node": 61.2471,
        "meta_arg_of_pericenter": 218.7876,
        "meta_mean_anomaly": 149.4282,
        "meta_ephemeris_type": 0,
        "meta_classification_type": "U",
        "meta_norad_cat_id": 26766,
        "meta_element_set_no": 999,
        "meta_rev_at_epoch": 4364,
        "meta_bstar": 0,
        "meta_mean_motion_dot": -1.56e-06,
        "meta_mean_motion_ddot": 0,
        "tle_line1": "1 26766U 01019A   25337.49558479 -.00000156  00000+0  00000+0 0  9990",
        "tle_line2": "2 26766   8.6063  61.2471 0007771 218.7876 149.4282  0.99078102 43647"
      },
      "geometry": {
        "type": "Point",
        "coordinates": [
          154.04298912358163,
          8.603218018985642
        ]
      }
    },
    {
      "type": "Feature",
      "properties": {
        "norad_id": 26900,
        "name": "INTELSAT 902 (IS-902)",
        "group": "intelsat",
        "lat": -3.3780964364509214,
        "lon": -69.27173396389027,
        "alt_km": 35773.57538218833,
        "timestamp": "2025-12-04T17:48:39.840519+00:00",
        "meta_object_name": "INTELSAT 902 (IS-902)",
        "meta_object_id": "2001-039A",
        "meta_epoch": "2025-12-01T16:59:59.311968",
        "meta_mean_motion": 1.00270327,
        "meta_eccentricity": 0.00043097,
        "meta_inclination": 5.6187,
        "meta_ra_of_asc_node": 74.2002,
        "meta_arg_of_pericenter": 175.119,
        "meta_mean_anomaly": 26.3816,
        "meta_ephemeris_type": 0,
        "meta_classification_type": "U",
        "meta_norad_cat_id": 26900,
        "meta_element_set_no": 999,
        "meta_rev_at_epoch": 8871,
        "meta_bstar": 0,
        "meta_mean_motion_dot": -2.63e-06,
        "meta_mean_motion_ddot": 0,
        "tle_line1": "1 26900U 01039A   25335.70832537 -.00000263  00000+0  00000+0 0  9993",
        "tle_line2": "2 26900   5.6187  74.2002 0004309 175.1190  26.3816  1.00270327 88713"
      },
      "geometry": {
        "type": "Point",
        "coordinates": [
          -69.27173396389027,
          -3.3780964364509214
        ]
      }
    },
    {
      "type": "Feature",
      "properties": {
        "norad_id": 27380,
        "name": "INTELSAT 904 (IS-904)",
        "group": "intelsat",
        "lat": -5.462785532139152,
        "lon": -50.69066164357604,
        "alt_km": 35781.78814213203,
        "timestamp": "2025-12-04T17:48:39.840535+00:00",
        "meta_object_name": "INTELSAT 904 (IS-904)",
        "meta_object_id": "2002-007A",
        "meta_epoch": "2025-12-04T03:15:07.422048",
        "meta_mean_motion": 1.00269112,
        "meta_eccentricity": 0.0001653,
        "meta_inclination": 6.4321,
        "meta_ra_of_asc_node": 71.5299,
        "meta_arg_of_pericenter": 204.3424,
        "meta_mean_anomaly": 174.6206,
        "meta_ephemeris_type": 0,
        "meta_classification_type": "U",
        "meta_norad_cat_id": 27380,
        "meta_element_set_no": 999,
        "meta_rev_at_epoch": 4981,
        "meta_bstar": 0,
        "meta_mean_motion_dot": -2.13e-06,
        "meta_mean_motion_ddot": 0,
        "tle_line1": "1 27380U 02007A   25338.13550257 -.00000213  00000+0  00000+0 0  9993",
        "tle_line2": "2 27380   6.4321  71.5299 0001653 204.3424 174.6206  1.00269112 49815"
      },
      "geometry": {
        "type": "Point",
        "coordinates": [
          -50.69066164357604,
          -5.462785532139152
        ]
      }
    },
    {
      "type": "Feature",
      "properties": {
        "norad_id": 27426,
        "name": "DIRECTV 5 (TEMPO 1)",
        "group": "intelsat",
        "lat": 1.9560475016328054,
        "lon": -129.11953416049036,
        "alt_km": 35773.14446773083,
        "timestamp": "2025-12-04T17:48:39.840549+00:00",
        "meta_object_name": "DIRECTV 5 (TEMPO 1)",
        "meta_object_id": "2002-023A",
        "meta_epoch": "2025-12-04T06:21:13.546368",
        "meta_mean_motion": 1.00271243,
        "meta_eccentricity": 0.0003833,
        "meta_inclination": 4.3791,
        "meta_ra_of_asc_node": 77.7519,
        "meta_arg_of_pericenter": 190.9964,
        "meta_mean_anomaly": 149.7746,
        "meta_ephemeris_type": 0,
        "meta_classification_type": "U",
        "meta_norad_cat_id": 27426,
        "meta_element_set_no": 999,
        "meta_rev_at_epoch": 8616,
        "meta_bstar": 0,
        "meta_mean_motion_dot": -4.4e-07,
        "meta_mean_motion_ddot": 0,
        "tle_line1": "1 27426U 02023A   25338.26474012 -.00000044  00000+0  00000+0 0  9992",
        "tle_line2": "2 27426   4.3791  77.7519 0003833 190.9964 149.7746  1.00271243 86167"
      },
      "geometry": {
        "type": "Point",
        "coordinates": [
          -129.11953416049036,
          1.9560475016328054
        ]
      }
    },
    {
      "type": "Feature",
      "properties": {
        "norad_id": 27438,
        "name": "INTELSAT 905 (IS-905)",
        "group": "intelsat",
        "lat": 4.659991218307369,
        "lon": -156.06903440971047,
        "alt_km": 35777.79130759398,
        "timestamp": "2025-12-04T17:48:39.840562+00:00",
        "meta_object_name": "INTELSAT 905 (IS-905)",
        "meta_object_id": "2002-027A",
        "meta_epoch": "2025-12-03T09:40:44.149728",
        "meta_mean_motion": 1.00273288,
        "meta_eccentricity": 0.00031296,
        "meta_inclination": 6.2606,
        "meta_ra_of_asc_node": 72.1621,
        "meta_arg_of_pericenter": 189.1417,
        "meta_mean_anomaly": 179.1858,
        "meta_ephemeris_type": 0,
        "meta_classification_type": "U",
        "meta_norad_cat_id": 27438,
        "meta_element_set_no": 999,
        "meta_rev_at_epoch": 4940,
        "meta_bstar": 0,
        "meta_mean_motion_dot": 1.09e-06,
        "meta_mean_motion_ddot": 0,
        "tle_line1": "1 27438U 02027A   25337.40328877  .00000109  00000+0  00000+0 0  9992",
        "tle_line2": "2 27438   6.2606  72.1621 0003129 189.1417 179.1858  1.00273288 49408"
      },
      "geometry": {
        "type": "Point",
        "coordinates": [
          -156.06903440971047,
          4.659991218307369
        ]
      }
    },
    {
      "type": "Feature",
      "properties": {
        "norad_id": 27445,
        "name": "GALAXY 3C (G-3C)",
        "group": "intelsat",
        "lat": 0.7828183089696705,
        "lon": -113.86330677557281,
        "alt_km": 35784.053170962834,
        "timestamp": "2025-12-04T17:48:39.840574+00:00",
        "meta_object_name": "GALAXY 3C (G-3C)",
        "meta_object_id": "2002-030A",
        "meta_epoch": "2025-12-04T06:25:35.626944",
        "meta_mean_motion": 1.00270421,
        "meta_eccentricity": 0.00012692,
        "meta_inclination": 3.2417,
        "meta_ra_of_asc_node": 80.5935,
        "meta_arg_of_pericenter": 101.2419,
        "meta_mean_anomaly": 253.0476,
        "meta_ephemeris_type": 0,
        "meta_classification_type": "U",
        "meta_norad_cat_id": 27445,
        "meta_element_set_no": 999,
        "meta_rev_at_epoch": 4453,
        "meta_bstar": 0,
        "meta_mean_motion_dot": -1.38e-06,
        "meta_mean_motion_ddot": 0,
        "tle_line1": "1 27445U 02030A   25338.26777346 -.00000138  00000+0  00000+0 0  9991",
        "tle_line2": "2 27445   3.2417  80.5935 0001269 101.2419 253.0476  1.00270421 44537"
      },
      "geometry": {
        "type": "Point",
        "coordinates": [
          -113.86330677557281,
          0.7828183089696705
        ]
      }
    },
    {
      "type": "Feature",
      "properties": {
        "norad_id": 27513,
        "name": "INTELSAT 906 (IS-906)",
        "group": "intelsat",
        "lat": -2.639825344345938,
        "lon": 45.26381303729976,
        "alt_km": 35804.954169571625,
        "timestamp": "2025-12-04T17:48:39.840586+00:00",
        "meta_object_name": "INTELSAT 906 (IS-906)",
        "meta_object_id": "2002-041A",
        "meta_epoch": "2025-12-04T05:28:17.651712",
        "meta_mean_motion": 1.002733,
        "meta_eccentricity": 0.00061181,
        "meta_inclination": 5.3074,
        "meta_ra_of_asc_node": 75.3323,
        "meta_arg_of_pericenter": 192.8955,
        "meta_mean_anomaly": 311.2929,
        "meta_ephemeris_type": 0,
        "meta_classification_type": "U",
        "meta_norad_cat_id": 27513,
        "meta_element_set_no": 999,
        "meta_rev_at_epoch": 8507,
        "meta_bstar": 0,
        "meta_mean_motion_dot": 2.5e-07,
        "meta_mean_motion_ddot": 0,
        "tle_line1": "1 27513U 02041A   25338.22798208  .00000025  00000+0  00000+0 0  9999",
        "tle_line2": "2 27513   5.3074  75.3323 0006118 192.8955 311.2929  1.00273300 85070"
      },
      "geometry": {
        "type": "Point",
        "coordinates": [
          45.26381303729976,
          -2.639825344345938
        ]
      }
    }
  ]
}